start=new Date('2022-10-21T00:00:00.000Z').valueOf();
sats=[{"MEAN_MOTION_DDOT":"0.0000000000000","INCLINATION":"53.0541","MEAN_MOTION_DOT":"0.00001681","ELEMENT_SET_NO":"999","MEAN_MOTION":"15.06399209","APOAPSIS":"548.404","PERIAPSIS":"546.028","OBJECT_TYPE":"PAYLOAD","TLE_LINE1":"1 45415U 20019BH  22293.71090410  .00001681  00000-0  13175-3 0  9997","FILE":"3626396","SITE":"AFETR","CENTER_NAME":"EARTH","GP_ID":"215723102","RA_OF_ASC_NODE":"285.1542","CLASSIFICATION_TYPE":"U","RCS_SIZE":"LARGE","REF_FRAME":"TEME","EPOCH":"2022-10-20T17:03:42.114240","ARG_OF_PERICENTER":"53.7249","SEMIMAJOR_AXIS":"6925.351","ECCENTRICITY":"0.00017150","REV_AT_EPOCH":"14359","OBJECT_ID":"2020-019BH","TLE_LINE2":"2 45415  53.0541 285.1542 0001715  53.7249 306.3898 15.06399209143593","NORAD_CAT_ID":"45415","MEAN_ANOMALY":"306.3898","TIME_SYSTEM":"UTC","LAUNCH_DATE":"2020-03-18","PERIOD":"95.592","MEAN_ELEMENT_THEORY":"SGP4","DECAY_DATE":null,"OBJECT_NAME":"STARLINK-1316","BSTAR":"0.00013175000000","EPHEMERIS_TYPE":"0","COUNTRY_CODE":"US"},{"LAUNCH_DATE":"2020-03-18","TIME_SYSTEM":"UTC","DECAY_DATE":null,"OBJECT_NAME":"STARLINK-1318","MEAN_ELEMENT_THEORY":"SGP4","PERIOD":"95.592","BSTAR":"0.00009512300000","EPHEMERIS_TYPE":"0","COUNTRY_CODE":"US","CLASSIFICATION_TYPE":"U","RA_OF_ASC_NODE":"287.0764","REF_FRAME":"TEME","RCS_SIZE":"LARGE","ARG_OF_PERICENTER":"48.1029","EPOCH":"2022-10-20T06:42:41.830848","SEMIMAJOR_AXIS":"6925.329","REV_AT_EPOCH":"14351","ECCENTRICITY":"0.00020970","OBJECT_ID":"2020-019BJ","MEAN_ANOMALY":"312.0138","TLE_LINE2":"2 45416  53.0534 287.0764 0002097  48.1029 312.0138 15.06406328143515","NORAD_CAT_ID":"45416","APOAPSIS":"548.646","PERIAPSIS":"545.742","TLE_LINE1":"1 45416U 20019BJ  22293.27965082  .00001136  00000-0  95123-4 0  9994","OBJECT_TYPE":"PAYLOAD","SITE":"AFETR","FILE":"3625892","GP_ID":"215686625","CENTER_NAME":"EARTH","MEAN_MOTION_DDOT":"0.0000000000000","INCLINATION":"53.0534","MEAN_MOTION_DOT":"0.00001136","ELEMENT_SET_NO":"999","MEAN_MOTION":"15.06406328"},{"SITE":"AFETR","FILE":"3625892","OBJECT_TYPE":"PAYLOAD","TLE_LINE1":"1 45417U 20019BK  22293.35060063  .00000674  00000-0  64141-4 0  9991","CENTER_NAME":"EARTH","GP_ID":"215687875","APOAPSIS":"548.453","PERIAPSIS":"545.964","ELEMENT_SET_NO":"999","MEAN_MOTION":"15.06401603","INCLINATION":"53.0564","MEAN_MOTION_DDOT":"0.0000000000000","MEAN_MOTION_DOT":"0.00000674","COUNTRY_CODE":"US","LAUNCH_DATE":"2020-03-18","TIME_SYSTEM":"UTC","BSTAR":"0.00006414100000","EPHEMERIS_TYPE":"0","OBJECT_NAME":"STARLINK-1286","DECAY_DATE":null,"MEAN_ELEMENT_THEORY":"SGP4","PERIOD":"95.592","OBJECT_ID":"2020-019BK","REV_AT_EPOCH":"14337","ECCENTRICITY":"0.00017970","MEAN_ANOMALY":"310.0303","NORAD_CAT_ID":"45417","TLE_LINE2":"2 45417  53.0564 316.7522 0001797  50.0844 310.0303 15.06401603143371","RCS_SIZE":"LARGE","REF_FRAME":"TEME","CLASSIFICATION_TYPE":"U","RA_OF_ASC_NODE":"316.7522","SEMIMAJOR_AXIS":"6925.344","ARG_OF_PERICENTER":"50.0844","EPOCH":"2022-10-20T08:24:51.894432"},{"MEAN_MOTION":"15.09764243","ELEMENT_SET_NO":"999","MEAN_MOTION_DOT":"0.00017668","MEAN_MOTION_DDOT":"0.0000000000000","INCLINATION":"52.9993","CENTER_NAME":"EARTH","GP_ID":"215688112","TLE_LINE1":"1 45418U 20019BL  22293.40288976  .00017668  00000-0  10972-2 0  9995","OBJECT_TYPE":"PAYLOAD","FILE":"3625892","SITE":"AFETR","APOAPSIS":"539.139","PERIAPSIS":"534.705","NORAD_CAT_ID":"45418","TLE_LINE2":"2 45418  52.9993 336.3789 0003206  45.6353 314.4899 15.09764243142799","MEAN_ANOMALY":"314.4899","ECCENTRICITY":"0.00032060","REV_AT_EPOCH":"14279","OBJECT_ID":"2020-019BL","EPOCH":"2022-10-20T09:40:09.675264","ARG_OF_PERICENTER":"45.6353","SEMIMAJOR_AXIS":"6915.057","CLASSIFICATION_TYPE":"U","RA_OF_ASC_NODE":"336.3789","REF_FRAME":"TEME","RCS_SIZE":"LARGE","COUNTRY_CODE":"US","PERIOD":"95.379","MEAN_ELEMENT_THEORY":"SGP4","DECAY_DATE":null,"OBJECT_NAME":"STARLINK-1299","EPHEMERIS_TYPE":"0","BSTAR":"0.00109720000000","TIME_SYSTEM":"UTC","LAUNCH_DATE":"2020-03-18"},{"OBJECT_ID":"2020-019BM","REV_AT_EPOCH":"14314","ECCENTRICITY":"0.00016480","MEAN_ANOMALY":"294.9669","TLE_LINE2":"2 45419  53.0537 316.1918 0001648  65.1491 294.9669 15.06392980143143","NORAD_CAT_ID":"45419","REF_FRAME":"TEME","RCS_SIZE":"LARGE","CLASSIFICATION_TYPE":"U","RA_OF_ASC_NODE":"316.1918","SEMIMAJOR_AXIS":"6925.370","ARG_OF_PERICENTER":"65.1491","EPOCH":"2022-10-20T11:30:38.589984","COUNTRY_CODE":"US","LAUNCH_DATE":"2020-03-18","TIME_SYSTEM":"UTC","EPHEMERIS_TYPE":"0","BSTAR":"0.00005674300000","OBJECT_NAME":"STARLINK-1308","DECAY_DATE":null,"PERIOD":"95.593","MEAN_ELEMENT_THEORY":"SGP4","ELEMENT_SET_NO":"999","MEAN_MOTION":"15.06392980","MEAN_MOTION_DDOT":"0.0000000000000","INCLINATION":"53.0537","MEAN_MOTION_DOT":"0.00000564","SITE":"AFETR","FILE":"3625892","OBJECT_TYPE":"PAYLOAD","TLE_LINE1":"1 45419U 20019BM  22293.47961331  .00000564  00000-0  56743-4 0  9991","GP_ID":"215686875","CENTER_NAME":"EARTH","PERIAPSIS":"546.094","APOAPSIS":"548.376"},{"INCLINATION":"53.0536","MEAN_MOTION_DDOT":"0.0000000000000","MEAN_MOTION_DOT":"0.00008051","ELEMENT_SET_NO":"999","MEAN_MOTION":"15.06410847","PERIAPSIS":"546.115","APOAPSIS":"548.245","SITE":"AFETR","FILE":"3625892","OBJECT_TYPE":"PAYLOAD","TLE_LINE1":"1 45531U 20025A   22293.38193391  .00008051  00000-0  55859-3 0  9991","CENTER_NAME":"EARTH","GP_ID":"215687388","REF_FRAME":"TEME","RCS_SIZE":"LARGE","RA_OF_ASC_NODE":"256.6255","CLASSIFICATION_TYPE":"U","SEMIMAJOR_AXIS":"6925.315","ARG_OF_PERICENTER":"53.2948","EPOCH":"2022-10-20T09:09:59.089824","OBJECT_ID":"2020-025A","REV_AT_EPOCH":"13875","ECCENTRICITY":"0.00015380","MEAN_ANOMALY":"306.8182","TLE_LINE2":"2 45531  53.0536 256.6255 0001538  53.2948 306.8182 15.06410847138759","NORAD_CAT_ID":"45531","LAUNCH_DATE":"2020-04-22","TIME_SYSTEM":"UTC","EPHEMERIS_TYPE":"0","BSTAR":"0.00055859000000","OBJECT_NAME":"STARLINK-1329","DECAY_DATE":null,"MEAN_ELEMENT_THEORY":"SGP4","PERIOD":"95.591","COUNTRY_CODE":"US"},{"ARG_OF_PERICENTER":"66.8904","EPOCH":"2022-10-20T06:14:49.938144","SEMIMAJOR_AXIS":"6925.361","CLASSIFICATION_TYPE":"U","RA_OF_ASC_NODE":"257.1771","RCS_SIZE":"LARGE","REF_FRAME":"TEME","NORAD_CAT_ID":"45532","TLE_LINE2":"2 45532  53.0562 257.1771 0001808  66.8904 293.2275 15.06395814138736","MEAN_ANOMALY":"293.2275","ECCENTRICITY":"0.00018080","REV_AT_EPOCH":"13873","OBJECT_ID":"2020-025B","PERIOD":"95.592","MEAN_ELEMENT_THEORY":"SGP4","OBJECT_NAME":"STARLINK-1338","DECAY_DATE":null,"BSTAR":"0.00003152700000","EPHEMERIS_TYPE":"0","TIME_SYSTEM":"UTC","LAUNCH_DATE":"2020-04-22","COUNTRY_CODE":"US","MEAN_MOTION_DOT":"0.00000188","INCLINATION":"53.0562","MEAN_MOTION_DDOT":"0.0000000000000","MEAN_MOTION":"15.06395814","ELEMENT_SET_NO":"999","PERIAPSIS":"545.974","APOAPSIS":"548.478","CENTER_NAME":"EARTH","GP_ID":"215687624","OBJECT_TYPE":"PAYLOAD","TLE_LINE1":"1 45532U 20025B   22293.26030021  .00000188  00000-0  31527-4 0  9999","FILE":"3625892","SITE":"AFETR"},{"ELEMENT_SET_NO":"999","MEAN_MOTION":"15.06381662","MEAN_MOTION_DDOT":"0.0000000000000","INCLINATION":"53.0547","MEAN_MOTION_DOT":"0.00005588","TLE_LINE1":"1 45534U 20025D   22293.27136333  .00005588  00000-0  39397-3 0  9996","OBJECT_TYPE":"PAYLOAD","FILE":"3625892","SITE":"AFETR","CENTER_NAME":"EARTH","GP_ID":"215686387","PERIAPSIS":"545.685","APOAPSIS":"548.854","ECCENTRICITY":"0.00022880","REV_AT_EPOCH":"13873","OBJECT_ID":"2020-025D","NORAD_CAT_ID":"45534","TLE_LINE2":"2 45534  53.0547 257.1097 0002288  35.7583 324.3559 15.06381662138730","MEAN_ANOMALY":"324.3559","CLASSIFICATION_TYPE":"U","RA_OF_ASC_NODE":"257.1097","REF_FRAME":"TEME","RCS_SIZE":"LARGE","ARG_OF_PERICENTER":"35.7583","EPOCH":"2022-10-20T06:30:45.791712","SEMIMAJOR_AXIS":"6925.405","COUNTRY_CODE":"US","TIME_SYSTEM":"UTC","LAUNCH_DATE":"2020-04-22","PERIOD":"95.593","MEAN_ELEMENT_THEORY":"SGP4","DECAY_DATE":null,"OBJECT_NAME":"STARLINK-1341","BSTAR":"0.00039397000000","EPHEMERIS_TYPE":"0"},{"COUNTRY_CODE":"US","BSTAR":"0.00006490800000","EPHEMERIS_TYPE":"0","OBJECT_NAME":"STARLINK-1350","DECAY_DATE":null,"MEAN_ELEMENT_THEORY":"SGP4","PERIOD":"95.592","LAUNCH_DATE":"2020-04-22","TIME_SYSTEM":"UTC","MEAN_ANOMALY":"298.8162","NORAD_CAT_ID":"45535","TLE_LINE2":"2 45535  53.0554 255.5443 0001590  61.2987 298.8162 15.06409289138790","OBJECT_ID":"2020-025E","REV_AT_EPOCH":"13879","ECCENTRICITY":"0.00015900","SEMIMAJOR_AXIS":"6925.320","ARG_OF_PERICENTER":"61.2987","EPOCH":"2022-10-20T14:54:59.528448","REF_FRAME":"TEME","RCS_SIZE":"LARGE","RA_OF_ASC_NODE":"255.5443","CLASSIFICATION_TYPE":"U","CENTER_NAME":"EARTH","GP_ID":"215722848","SITE":"AFETR","FILE":"3626396","TLE_LINE1":"1 45535U 20025E   22293.62152232  .00000686  00000-0  64908-4 0  9993","OBJECT_TYPE":"PAYLOAD","PERIAPSIS":"546.084","APOAPSIS":"548.286","MEAN_MOTION":"15.06409289","ELEMENT_SET_NO":"999","MEAN_MOTION_DOT":"0.00000686","INCLINATION":"53.0554","MEAN_MOTION_DDOT":"0.0000000000000"},{"MEAN_MOTION_DDOT":"0.0000000000000","INCLINATION":"53.0551","MEAN_MOTION_DOT":"0.00002621","ELEMENT_SET_NO":"999","MEAN_MOTION":"15.06398325","APOAPSIS":"548.304","PERIAPSIS":"546.133","FILE":"3626396","SITE":"AFETR","OBJECT_TYPE":"PAYLOAD","TLE_LINE1":"1 45536U 20025F   22293.89059579  .00002621  00000-0  19477-3 0  9994","CENTER_NAME":"EARTH","GP_ID":"215721616","REF_FRAME":"TEME","RCS_SIZE":"LARGE","CLASSIFICATION_TYPE":"U","RA_OF_ASC_NODE":"254.3381","SEMIMAJOR_AXIS":"6925.354","ARG_OF_PERICENTER":"61.8816","EPOCH":"2022-10-20T21:22:27.476256","OBJECT_ID":"2020-025F","ECCENTRICITY":"0.00015670","REV_AT_EPOCH":"13882","TLE_LINE2":"2 45536  53.0551 254.3381 0001567  61.8816 298.2331 15.06398325138821","NORAD_CAT_ID":"45536","MEAN_ANOMALY":"298.2331","TIME_SYSTEM":"UTC","LAUNCH_DATE":"2020-04-22","BSTAR":"0.00019477000000","EPHEMERIS_TYPE":"0","PERIOD":"95.592","MEAN_ELEMENT_THEORY":"SGP4","DECAY_DATE":null,"OBJECT_NAME":"STARLINK-1352","COUNTRY_CODE":"US"}];
